OBJECT_NAME,OBJECT_ID,EPOCH,MEAN_MOTION,ECCENTRICITY,INCLINATION,RA_OF_ASC_NODE,ARG_OF_PERICENTER,MEAN_ANOMALY,EPHEMERIS_TYPE,CLASSIFICATION_TYPE,NORAD_CAT_ID,ELEMENT_SET_NO,REV_AT_EPOCH,BSTAR,MEAN_MOTION_DOT,MEAN_MOTION_DDOT
ZORKIY-2M 1,2023-091M,2026-06-04T17:03:21.832704,15.20732658,.0014147,97.5092,214.7167,154.6355,205.5577,0,U,57177,999,16210,.38751E-3,.8481E-4,0
CUBESX-HSE 3 (RS42S),2023-091N,2026-06-04T05:35:49.761312,15.30872052,.00120446,97.5093,220.6597,134.7257,225.4967,0,U,57178,999,16244,.51751371E-3,.15408E-3,0
MONITOR-3 (RS58S),2023-091Q,2026-06-04T03:56:00.938400,15.27565922,.00128634,97.5085,218.5166,141.1958,219.0208,0,U,57180,999,16230,.44640986E-3,.11994E-3,0
MONITOR-4 (RS57S),2023-091S,2026-06-04T03:26:58.295328,15.27663555,.00128048,97.5078,218.4669,141.6583,218.5569,0,U,57182,999,16230,.46321053E-3,.12486E-3,0
MONITOR-2 (RS39S),2023-091U,2026-06-04T04:51:20.171520,15.18783513,.00120658,97.5075,213.5700,151.3600,208.8300,0,U,57184,999,16198,.27231313E-3,.5604E-4,0
SVYATOBOR 1 (RS60S),2023-091X,2026-06-04T05:04:17.058720,15.26383361,.00107125,97.5090,218.9584,133.6184,226.5944,0,U,57187,999,16233,.39089466E-3,.10113E-3,0
HORS 1,2023-091Y,2026-06-04T17:19:53.048064,15.26494333,.0010234,97.5068,219.2361,131.3637,228.8483,0,U,57188,999,16241,.41749E-3,.10842E-3,0
VIZARD-METEO (RS38S),2023-091Z,2026-06-04T02:48:12.601728,15.35589021,.0008752,97.5093,224.3441,116.2926,243.9218,0,U,57189,999,16268,.54135836E-3,.18692E-3,0
SITRO-AIS 6 (CHIRKIN),2023-091AC,2026-06-04T17:16:02.346240,15.25686416,.001276,97.5069,218.6875,145.1634,215.0441,0,U,57192,999,16238,.46379E-3,.11774E-3,0
SITRO-AIS 8 (ANOKHIN),2023-091AD,2026-06-04T05:16:09.920064,15.31768845,.00117046,97.5058,220.5348,139.8166,220.3943,0,U,57193,999,16246,.54161067E-3,.16586E-3,0
SITRO-AIS 7 (FARTUSHNIY),2023-091AE,2026-06-04T17:16:55.992000,15.25380495,.0012599,97.5067,218.5194,146.0998,214.1048,0,U,57194,999,16237,.46013E-3,.11572E-3,0
AVION KALUGA 650,2023-091AF,2026-06-04T17:20:13.570656,15.20213870,.001134,97.5091,215.3501,147.5402,212.6532,0,U,57195,999,16213,.32448E-3,.6976E-4,0
HORS 2,2023-091AG,2026-06-04T05:30:10.432224,15.31541536,.00095324,97.5090,222.0853,126.1096,234.1029,0,U,57196,999,16254,.50397433E-3,.15306E-3,0
A-SEANSAT-PG1,2023-091AH,2026-06-04T05:57:58.887072,15.36490364,.00086264,97.5082,224.5583,122.8984,237.3090,0,U,57197,999,16272,.58360629E-3,.20753E-3,0
SITRO-AIS 10 (BURDAEV),2023-091AK,2026-06-04T05:45:38.470176,15.38097459,.00079926,97.5081,225.4777,118.0781,242.1273,0,U,57199,999,16277,.60067075E-3,.22502E-3,0
SITRO-AIS 9 (SHCHUKIN),2023-091AM,2026-06-04T06:17:50.101152,15.37627915,.00082089,97.5080,225.2404,118.1889,242.0185,0,U,57201,999,16276,.6046684E-3,.2231E-3,0
UTMN 2 (RS27S),2023-091AP,2026-06-04T17:09:54.633024,15.31732478,.0009464,97.5088,222.7663,120.7007,239.5168,0,U,57203,999,16263,.47735E-3,.14578E-3,0
SITRO-AIS 12 (SMIRENNIY),2023-091AQ,2026-06-04T06:07:50.214720,15.37915387,.00078493,97.5094,225.6926,113.2192,246.9880,0,U,57204,999,16278,.58532045E-3,.21792E-3,0
SITRO-AIS 11 (SHEFFER),2023-091AU,2026-06-04T06:32:14.115840,15.38328724,.00077815,97.5091,225.9484,113.0378,247.1688,0,U,57208,999,16280,.61639293E-3,.23268E-3,0
H2SAT (HEINRICH HERTZ),2023-093A,2026-06-04T03:17:58.373952,1.00272490,.00009749,0.0448,123.4904,332.0680,207.2004,0,U,57213,999,1078,0,.14E-6,0
KUZGTU 1 (RS47S),2023-091AV,2026-06-04T05:06:41.554944,15.29547520,.00121715,97.5065,219.5637,138.0553,222.1622,0,U,57217,999,16239,.48911984E-3,.13972E-3,0
QIANKUN-1,2023-103B,2026-05-31T16:15:12.115584,16.07626689,.00240549,96.1558,197.6671,142.5816,217.7151,0,U,57422,999,16464,.28012432E-4,.22767E-3,.1887657E-5
FENGYUN 3F,2023-111A,2026-06-04T20:30:01.159776,14.19936984,.0001569,98.6837,226.0924,102.3129,257.8223,0,U,57490,999,14711,.55191E-4,.74E-6,0
HJ-2F,2023-116A,2026-06-04T19:53:06.110880,15.22136888,.0010578,97.3844,161.2642,87.6546,272.5901,0,U,57519,999,15687,.42398E-3,.9669E-4,0
XRISM,2023-137A,2026-06-02T06:36:16.681248,15.12327778,.00076942,31.0020,96.1840,175.1081,184.9634,0,U,57800,999,15060,.31044403E-3,.5615E-4,0
METEOR-M2 4,2024-039A,2026-06-04T20:57:56.529216,14.22428250,.0006562,98.7006,115.3268,196.8514,163.2447,0,U,59051,999,11751,.30293E-4,.24E-6,0
GRBBETA,2024-128C,2026-06-04T17:49:09.395040,15.06546882,.0042354,61.9904,259.9266,132.1755,228.2947,0,U,60237,999,10439,.3408E-3,.4952E-4,0
TRANSPORTER-11 OBJECT A,2024-149A,2026-06-04T02:19:44.312160,15.32684040,.00017372,97.3731,235.0694,255.7782,104.3267,0,U,60468,999,10005,.30792035E-3,.9643E-4,0
WARATAH SEED-1,2024-149B,2026-06-04T00:21:17.877600,15.35600421,.00003345,97.3686,235.5807,231.4383,128.6830,0,U,60469,999,10009,.42975222E-3,.14804E-3,0
